IRIDIUM 116             
1 43072U 17083C   23314.59568463  .00000549  00000+0  18909-3 0  9991
2 43072  86.3996 358.8890 0002249  91.1545 268.9909 14.34214459308069
IRIDIUM 130             
1 43073U 17083D   23314.56397064  .00000176  00000+0  55927-4 0  9994
2 43073  86.4003 359.0853 0002177  97.3350 262.8093 14.34216519308004
IRIDIUM 151             
1 43074U 17083E   23314.53859403  .00000476  00000+0  16295-3 0  9999
2 43074  86.3997 358.9490 0002108  87.9822 272.1615 14.34219484308024
IRIDIUM 134             
1 43075U 17083F   23314.57664518  .00000534  00000+0  18372-3 0  9998
2 43075  86.3998 358.9282 0002217  96.6055 263.5393 14.34223895307994
IRIDIUM 137             
1 43076U 17083G   23314.58934357  .00000405  00000+0  13760-3 0  9994
2 43076  86.3998 358.9968 0002439  87.8944 272.2531 14.34214365308063
IRIDIUM 141             
1 43077U 17083H   23314.58299990  .00000040  00000+0  70445-5 0  9992
2 43077  86.3995 358.8838 0001996  91.4587 268.6838 14.34213790308067
IRIDIUM 153             
1 43078U 17083J   23314.46540376  .00000456  00000+0  15559-3 0  9991
2 43078  86.3951 327.3931 0001869  91.2660 268.8749 14.34220817309156
IRIDIUM 131             
1 43079U 17083K   23314.57031139  .00000165  00000+0  51908-4 0  9992
2 43079  86.4002 359.0114 0002042  94.3481 265.7948 14.34212117307990
